[
  {
    "name": "ONEWEB-0193",
    "noradId": "48238",
    "line1": "1 48238U 21031AE  26175.07240605  .00000228  00000+0  57999-3 0  9990",
    "line2": "2 48238  87.8967 288.3267 0001519 100.3903 259.7398 13.14503166249211"
  },
  {
    "name": "ONEWEB-0191",
    "noradId": "48239",
    "line1": "1 48239U 21031AF  26174.77903939  .00000153  00000+0  37853-3 0  9997",
    "line2": "2 48239  87.8977 288.3841 0002012  95.2857 264.8503 13.14503680249036"
  },
  {
    "name": "ONEWEB-0195",
    "noradId": "48240",
    "line1": "1 48240U 21031AG  26175.06051467  .00000062  00000+0  13185-3 0  9993",
    "line2": "2 48240  87.8974 288.3287 0002217 109.8665 250.2704 13.14502141249050"
  },
  {
    "name": "ONEWEB-0201",
    "noradId": "48241",
    "line1": "1 48241U 21031AH  26175.04873881 -.00000296  00000+0 -83195-3 0  9993",
    "line2": "2 48241  87.8966 288.3466 0002222  96.3062 263.8321 13.14502447249287"
  },
  {
    "name": "ONEWEB-0207",
    "noradId": "48242",
    "line1": "1 48242U 21031AJ  26175.02879449 -.00000216  00000+0 -61840-3 0  9993",
    "line2": "2 48242  87.8974 288.3357 0002207  96.3732 263.7649 13.14503123249197"
  },
  {
    "name": "ONEWEB-0208",
    "noradId": "48243",
    "line1": "1 48243U 21031AK  26174.70608632  .00000076  00000+0  16933-3 0  9997",
    "line2": "2 48243  87.8972 288.4061 0002106 110.5108 249.6248 13.14504118249163"
  },
  {
    "name": "ONEWEB-0200",
    "noradId": "48244",
    "line1": "1 48244U 21031AL  26175.12632056 -.00000119  00000+0 -35567-3 0  9996",
    "line2": "2 48244  87.8977 288.3097 0002061 102.7109 257.4252 13.14502819249147"
  },
  {
    "name": "ONEWEB-0217",
    "noradId": "48245",
    "line1": "1 48245U 21031AM  26175.06605755  .00000212  00000+0  53657-3 0  9998",
    "line2": "2 48245  87.8977 288.3262 0002105 111.1875 248.9480 13.14501797249080"
  },
  {
    "name": "ONEWEB-0211",
    "noradId": "48767",
    "line1": "1 48767U 21045A   26175.18477185 -.00000041  00000+0 -14102-3 0  9993",
    "line2": "2 48767  87.9004 257.6866 0002142 119.6091 240.5254 13.16196630245366"
  },
  {
    "name": "ONEWEB-0223",
    "noradId": "48768",
    "line1": "1 48768U 21045B   26175.19054375 -.00000022  00000+0 -91605-4 0  9990",
    "line2": "2 48768  87.9005 257.7955 0001862 112.4606 247.6722 13.15549593245322"
  },
  {
    "name": "ONEWEB-0230",
    "noradId": "48769",
    "line1": "1 48769U 21045C   26175.16202130 -.00000006  00000+0 -49165-4 0  9998",
    "line2": "2 48769  87.8999 257.8140 0002019  95.4138 264.7223 13.15548870245587"
  },
  {
    "name": "ONEWEB-0237",
    "noradId": "48770",
    "line1": "1 48770U 21045D   26175.15092575  .00000136  00000+0  32811-3 0  9990",
    "line2": "2 48770  87.9000 257.8181 0001797 105.2428 254.8901 13.15547647245306"
  },
  {
    "name": "ONEWEB-0235",
    "noradId": "48771",
    "line1": "1 48771U 21045E   26175.20163555  .00000101  00000+0  23397-3 0  9995",
    "line2": "2 48771  87.9007 257.7944 0001763 111.5832 248.5487 13.15548720245304"
  },
  {
    "name": "ONEWEB-0242",
    "noradId": "48772",
    "line1": "1 48772U 21045F   26175.19529085 -.00000063  00000+0 -20267-3 0  9990",
    "line2": "2 48772  87.9010 257.7925 0001821 100.7047 259.4288 13.15547259245341"
  },
  {
    "name": "ONEWEB-0241",
    "noradId": "48773",
    "line1": "1 48773U 21045G   26175.18261824 -.00000094  00000+0 -28382-3 0  9994",
    "line2": "2 48773  87.8996 257.8125 0002052 112.6566 247.4781 13.15549781245259"
  },
  {
    "name": "ONEWEB-0243",
    "noradId": "48774",
    "line1": "1 48774U 21045H   26175.21430562  .00000144  00000+0  34890-3 0  9991",
    "line2": "2 48774  87.8999 257.8187 0001446 101.0389 259.0904 13.15549312245281"
  },
  {
    "name": "ONEWEB-0222",
    "noradId": "48775",
    "line1": "1 48775U 21045J   26175.19766504 -.00000001  00000+0 -37129-4 0  9990",
    "line2": "2 48775  87.9006 257.7901 0001968 107.5494 252.5852 13.15549597245322"
  },
  {
    "name": "ONEWEB-0244",
    "noradId": "48776",
    "line1": "1 48776U 21045K   26175.14775955  .00000140  00000+0  33860-3 0  9995",
    "line2": "2 48776  87.9014 257.7951 0001881 102.6268 257.5072 13.15549358245881"
  },
  {
    "name": "ONEWEB-0247",
    "noradId": "48777",
    "line1": "1 48777U 21045L   26175.22064796  .00000155  00000+0  37733-3 0  9998",
    "line2": "2 48777  87.8999 257.8120 0001304 117.0129 243.1134 13.15548058245334"
  },
  {
    "name": "ONEWEB-0245",
    "noradId": "48778",
    "line1": "1 48778U 21045M   26175.21589169  .00000166  00000+0  40584-3 0  9994",
    "line2": "2 48778  87.9010 257.7927 0002025 105.5871 254.5483 13.15548124245305"
  },
  {
    "name": "ONEWEB-0229",
    "noradId": "48779",
    "line1": "1 48779U 21045N   26175.21113698  .00000125  00000+0  29823-3 0  9993",
    "line2": "2 48779  87.9005 257.7916 0001921 100.4481 259.6866 13.15549416245332"
  },
  {
    "name": "ONEWEB-0228",
    "noradId": "48780",
    "line1": "1 48780U 21045P   26175.16849098  .00000018  00000+0  14796-4 0  9994",
    "line2": "2 48780  87.9014 257.7929 0001923 102.0954 258.0392 13.15547426245249"
  },
  {
    "name": "ONEWEB-0232",
    "noradId": "48781",
    "line1": "1 48781U 21045Q   26175.21905468  .00000244  00000+0  61349-3 0  9991",
    "line2": "2 48781  87.9013 257.7839 0002022 102.0504 258.0853 13.15546838245575"
  },
  {
    "name": "ONEWEB-0231",
    "noradId": "48782",
    "line1": "1 48782U 21045R   26175.19687285 -.00000066  00000+0 -21065-3 0  9998",
    "line2": "2 48782  87.9006 257.8008 0001895 106.9400 253.1938 13.15548895245263"
  },
  {
    "name": "ONEWEB-0234",
    "noradId": "48783",
    "line1": "1 48783U 21045S   26175.15870898  .00000012  00000+0 -32804-5 0  9994",
    "line2": "2 48783  87.9007 257.7902 0002823 104.0201 256.1244 13.15548920245393"
  },
  {
    "name": "ONEWEB-0238",
    "noradId": "48784",
    "line1": "1 48784U 21045T   26175.15898529  .00000013  00000+0 -35290-7 0  9991",
    "line2": "2 48784  87.9014 257.7851 0002445 102.9890 257.1514 13.15548062245293"
  },
  {
    "name": "ONEWEB-0240",
    "noradId": "48785",
    "line1": "1 48785U 21045U   26175.18023935 -.00000110  00000+0 -32689-3 0  9990",
    "line2": "2 48785  87.9009 257.7907 0002056 109.8018 250.3335 13.15548219245320"
  },
  {
    "name": "ONEWEB-0246",
    "noradId": "48786",
    "line1": "1 48786U 21045V   26175.17469142 -.00000066  00000+0 -20854-3 0  9995",
    "line2": "2 48786  87.9010 257.7961 0001866  99.9252 260.2089 13.15549325245190"
  },
  {
    "name": "ONEWEB-0210",
    "noradId": "48787",
    "line1": "1 48787U 21045W   26175.14933057  .00000055  00000+0  11123-3 0  9999",
    "line2": "2 48787  87.9006 257.7983 0001159 105.0561 255.0698 13.15547379245237"
  },
  {
    "name": "ONEWEB-0214",
    "noradId": "48788",
    "line1": "1 48788U 21045X   26175.15804993  .00000095  00000+0  21909-3 0  9994",
    "line2": "2 48788  87.9012 257.7934 0001729  92.4630 267.6699 13.15549531245209"
  },
  {
    "name": "ONEWEB-0221",
    "noradId": "48789",
    "line1": "1 48789U 21045Y   26175.16518946 -.00000017  00000+0 -79821-4 0  9999",
    "line2": "2 48789  87.9010 257.8005 0001896 105.2004 254.9336 13.15548833245291"
  },
  {
    "name": "ONEWEB-0213",
    "noradId": "48790",
    "line1": "1 48790U 21045Z   26175.15409452  .00000060  00000+0  12518-3 0  9996",
    "line2": "2 48790  87.9009 257.8061 0001753 105.5985 254.5339 13.15547337245350"
  },
  {
    "name": "ONEWEB-0212",
    "noradId": "48791",
    "line1": "1 48791U 21045AA  26175.20716271  .00000095  00000+0  21764-3 0  9994",
    "line2": "2 48791  87.9010 257.7899 0002037 100.2929 259.8431 13.15550215245357"
  },
  {
    "name": "ONEWEB-0227",
    "noradId": "48792",
    "line1": "1 48792U 21045AB  26175.20638482  .00000096  00000+0  22009-3 0  9996",
    "line2": "2 48792  87.9005 257.7907 0002024 103.5072 256.6284 13.15549267245304"
  },
  {
    "name": "ONEWEB-0226",
    "noradId": "48793",
    "line1": "1 48793U 21045AC  26175.20003036  .00000112  00000+0  26404-3 0  9990",
    "line2": "2 48793  87.9001 257.7964 0001730 102.8843 257.2481 13.15546097245275"
  },
  {
    "name": "ONEWEB-0224",
    "noradId": "48794",
    "line1": "1 48794U 21045AD  26175.16360187  .00000001  00000+0 -31408-4 0  9998",
    "line2": "2 48794  87.9001 257.8372 0002643 116.5176 243.6225 13.15547621245195"
  },
  {
    "name": "ONEWEB-0233",
    "noradId": "48795",
    "line1": "1 48795U 21045AE  26175.16821813 -.00000010  00000+0 -59807-4 0  9991",
    "line2": "2 48795  87.9001 257.8439 0001910 108.8956 251.2382 13.15548760245213"
  },
  {
    "name": "ONEWEB-0190",
    "noradId": "48796",
    "line1": "1 48796U 21045AF  26175.15567759  .00000018  00000+0  13287-4 0  9995",
    "line2": "2 48796  87.9004 257.8086 0001538 118.0674 242.0612 13.15547031245282"
  },
  {
    "name": "ONEWEB-0236",
    "noradId": "48797",
    "line1": "1 48797U 21045AG  26175.17311423 -.00000074  00000+0 -23072-3 0  9999",
    "line2": "2 48797  87.8997 257.8145 0002171 100.0382 260.0993 13.15549122245173"
  },
  {
    "name": "ONEWEB-0248",
    "noradId": "48798",
    "line1": "1 48798U 21045AH  26175.18578533 -.00000032  00000+0 -12034-3 0  9998",
    "line2": "2 48798  87.9010 257.7963 0001955 115.1451 244.9882 13.15548110245333"
  },
  {
    "name": "ONEWEB-0225",
    "noradId": "48799",
    "line1": "1 48799U 21045AJ  26175.20797234  .00000148  00000+0  36027-3 0  9997",
    "line2": "2 48799  87.9002 257.7999 0001666 114.8344 245.2960 13.15549505245341"
  },
  {
    "name": "ONEWEB-0215",
    "noradId": "48800",
    "line1": "1 48800U 21045AK  26175.17785896 -.00000086  00000+0 -26322-3 0  9997",
    "line2": "2 48800  87.9009 257.7886 0001712 120.4129 239.7171 13.15547405245217"
  },
  {
    "name": "ONEWEB-0216",
    "noradId": "48801",
    "line1": "1 48801U 21045AL  26175.18737258 -.00000037  00000+0 -13286-3 0  9999",
    "line2": "2 48801  87.9006 257.8012 0001986  98.3066 261.8290 13.15549559245224"
  }
]